<?xml version="1.0" encoding="UTF-8"?>
<ndm xmlns:xsi="http://www.w3.org/2001/XMLSchema-instance" xsi:noNamespaceSchemaLocation="https://sanaregistry.org/r/ndmxml_unqualified/ndmxml-2.0.0-master-2.0.xsd">
<omm id="CCSDS_OMM_VERS" version="2.0">
<header><CREATION_DATE/><ORIGINATOR/></header><body><segment><metadata><OBJECT_NAME>ORBCOMM FM115</OBJECT_NAME><OBJECT_ID>2015-081H</OBJECT_ID><CENTER_NAME>EARTH</CENTER_NAME><REF_FRAME>TEME</REF_FRAME><TIME_SYSTEM>UTC</TIME_SYSTEM><MEAN_ELEMENT_THEORY>SGP4</MEAN_ELEMENT_THEORY></metadata><data><meanElements><EPOCH>2024-11-28T03:42:55.985760</EPOCH><MEAN_MOTION>14.61717699</MEAN_MOTION><ECCENTRICITY>.0000802</ECCENTRICITY><INCLINATION>46.9982</INCLINATION><RA_OF_ASC_NODE>275.1603</RA_OF_ASC_NODE><ARG_OF_PERICENTER>242.1394</ARG_OF_PERICENTER><MEAN_ANOMALY>117.9411</MEAN_ANOMALY></meanElements><tleParameters><EPHEMERIS_TYPE>0</EPHEMERIS_TYPE><CLASSIFICATION_TYPE>U</CLASSIFICATION_TYPE><NORAD_CAT_ID>41186</NORAD_CAT_ID><ELEMENT_SET_NO>999</ELEMENT_SET_NO><REV_AT_EPOCH>47835</REV_AT_EPOCH><BSTAR>.60579E-3</BSTAR><MEAN_MOTION_DOT>.2875E-4</MEAN_MOTION_DOT><MEAN_MOTION_DDOT>0</MEAN_MOTION_DDOT></tleParameters></data></segment></body></omm>
<omm id="CCSDS_OMM_VERS" version="2.0">
<header><CREATION_DATE/><ORIGINATOR/></header><body><segment><metadata><OBJECT_NAME>ORBCOMM FM108</OBJECT_NAME><OBJECT_ID>2015-081J</OBJECT_ID><CENTER_NAME>EARTH</CENTER_NAME><REF_FRAME>TEME</REF_FRAME><TIME_SYSTEM>UTC</TIME_SYSTEM><MEAN_ELEMENT_THEORY>SGP4</MEAN_ELEMENT_THEORY></metadata><data><meanElements><EPOCH>2024-11-27T18:00:41.927328</EPOCH><MEAN_MOTION>14.57491938</MEAN_MOTION><ECCENTRICITY>.0001577</ECCENTRICITY><INCLINATION>47.0050</INCLINATION><RA_OF_ASC_NODE>337.8302</RA_OF_ASC_NODE><ARG_OF_PERICENTER>76.7231</ARG_OF_PERICENTER><MEAN_ANOMALY>283.3830</MEAN_ANOMALY></meanElements><tleParameters><EPHEMERIS_TYPE>0</EPHEMERIS_TYPE><CLASSIFICATION_TYPE>U</CLASSIFICATION_TYPE><NORAD_CAT_ID>41187</NORAD_CAT_ID><ELEMENT_SET_NO>999</ELEMENT_SET_NO><REV_AT_EPOCH>47740</REV_AT_EPOCH><BSTAR>.77984E-3</BSTAR><MEAN_MOTION_DOT>.3411E-4</MEAN_MOTION_DOT><MEAN_MOTION_DDOT>0</MEAN_MOTION_DDOT></tleParameters></data></segment></body></omm>
<omm id="CCSDS_OMM_VERS" version="2.0">
<header><CREATION_DATE/><ORIGINATOR/></header><body><segment><metadata><OBJECT_NAME>ORBCOMM FM117</OBJECT_NAME><OBJECT_ID>2015-081K</OBJECT_ID><CENTER_NAME>EARTH</CENTER_NAME><REF_FRAME>TEME</REF_FRAME><TIME_SYSTEM>UTC</TIME_SYSTEM><MEAN_ELEMENT_THEORY>SGP4</MEAN_ELEMENT_THEORY></metadata><data><meanElements><EPOCH>2024-11-28T03:05:04.470144</EPOCH><MEAN_MOTION>14.57495452</MEAN_MOTION><ECCENTRICITY>.0001757</ECCENTRICITY><INCLINATION>47.0014</INCLINATION><RA_OF_ASC_NODE>334.8814</RA_OF_ASC_NODE><ARG_OF_PERICENTER>106.3790</ARG_OF_PERICENTER><MEAN_ANOMALY>253.7288</MEAN_ANOMALY></meanElements><tleParameters><EPHEMERIS_TYPE>0</EPHEMERIS_TYPE><CLASSIFICATION_TYPE>U</CLASSIFICATION_TYPE><NORAD_CAT_ID>41188</NORAD_CAT_ID><ELEMENT_SET_NO>999</ELEMENT_SET_NO><REV_AT_EPOCH>47755</REV_AT_EPOCH><BSTAR>.69973E-3</BSTAR><MEAN_MOTION_DOT>.3043E-4</MEAN_MOTION_DOT><MEAN_MOTION_DDOT>0</MEAN_MOTION_DDOT></tleParameters></data></segment></body></omm>
<omm id="CCSDS_OMM_VERS" version="2.0">
<header><CREATION_DATE/><ORIGINATOR/></header><body><segment><metadata><OBJECT_NAME>ORBCOMM FM116</OBJECT_NAME><OBJECT_ID>2015-081L</OBJECT_ID><CENTER_NAME>EARTH</CENTER_NAME><REF_FRAME>TEME</REF_FRAME><TIME_SYSTEM>UTC</TIME_SYSTEM><MEAN_ELEMENT_THEORY>SGP4</MEAN_ELEMENT_THEORY></metadata><data><meanElements><EPOCH>2024-11-28T12:42:10.681920</EPOCH><MEAN_MOTION>14.57477945</MEAN_MOTION><ECCENTRICITY>.0002855</ECCENTRICITY><INCLINATION>47.0020</INCLINATION><RA_OF_ASC_NODE>62.8264</RA_OF_ASC_NODE><ARG_OF_PERICENTER>226.5688</ARG_OF_PERICENTER><MEAN_ANOMALY>133.4960</MEAN_ANOMALY></meanElements><tleParameters><EPHEMERIS_TYPE>0</EPHEMERIS_TYPE><CLASSIFICATION_TYPE>U</CLASSIFICATION_TYPE><NORAD_CAT_ID>41189</NORAD_CAT_ID><ELEMENT_SET_NO>999</ELEMENT_SET_NO><REV_AT_EPOCH>47644</REV_AT_EPOCH><BSTAR>.86573E-3</BSTAR><MEAN_MOTION_DOT>.3804E-4</MEAN_MOTION_DOT><MEAN_MOTION_DDOT>0</MEAN_MOTION_DDOT></tleParameters></data></segment></body></omm>
</ndm>
