ORBCOMM FM115           
1 41186U 15081H   24333.15481465  .00002875  00000+0  60579-3 0  9995
2 41186  46.9982 275.1603 0000802 242.1394 117.9411 14.61717699478351
ORBCOMM FM108           
1 41187U 15081J   24332.75048527  .00003411  00000+0  77984-3 0  9994
2 41187  47.0050 337.8302 0001577  76.7231 283.3830 14.57491938477401
ORBCOMM FM117           
1 41188U 15081K   24333.12852396  .00003043  00000+0  69973-3 0  9994
2 41188  47.0014 334.8814 0001757 106.3790 253.7288 14.57495452477556
ORBCOMM FM116           
1 41189U 15081L   24333.52929030  .00003804  00000+0  86573-3 0  9999
2 41189  47.0020  62.8264 0002855 226.5688 133.4960 14.57477945476447
